NORAD_CAT_ID,OBJECT_NAME,OBJECT_TYPE,EPOCH,MEAN_MOTION,ECCENTRICITY,INCLINATION,RA_OF_ASC_NODE,ARG_OF_PERICENTER,MEAN_ANOMALY,BSTAR,MEAN_MOTION_DOT,MEAN_MOTION_DDOT,TLE_LINE0,TLE_LINE1,TLE_LINE2,SEMIMAJOR_AXIS,PERIOD,APOGEE,PERIGEE,DECAYED
52494.0,STARLINK-3857,PAYLOAD,2023-05-22 15:48:49,15.08846,0.000107,53.2158,317.1941,111.9963,248.1143,0.00031473,4.725e-05,0.0,0 STARLINK-3857,1 52494U 22049AV  23142.65890142  .00004725  00000-0  31473-3 0  9997,2 52494  53.2158 317.1941 0001070 111.9963 248.1143 15.08846000 58260,6917.862,95.437,540.467,538.987,0.0
52494.0,STARLINK-3857,PAYLOAD,2023-05-22 20:34:58,15.08852711,0.0001056,53.2156,316.302,111.7833,248.3271,0.00062249,9.636e-05,0.0,0 STARLINK-3857,1 52494U 22049AV  23142.85762090  .00009636  00000-0  62249-3 0  9990,2 52494  53.2156 316.3020 0001056 111.7833 248.3271 15.08852711 58131,6917.842,95.437,540.437,538.976,0.0
52494.0,STARLINK-3857,PAYLOAD,2023-05-23 02:56:31,15.08837842,0.0001016,53.2155,315.1119,101.6033,258.5074,-2.7862e-05,-7.31e-06,0.0,0 STARLINK-3857,1 52494U 22049AV  23143.12258424 -.00000731  00000-0 -27862-4 0  9994,2 52494  53.2155 315.1119 0001016 101.6033 258.5074 15.08837842 58336,6917.887,95.438,540.455,539.049,0.0
52494.0,STARLINK-3857,PAYLOAD,2023-05-23 20:25:45,15.08847331,8.71e-05,53.216,311.8411,97.1732,262.936,0.00051145,7.863e-05,0.0,0 STARLINK-3857,1 52494U 22049AV  23143.85122346  .00007863  00000-0  51145-3 0  9998,2 52494  53.2160 311.8411 0000871  97.1732 262.9360 15.08847331 58288,6917.858,95.437,540.326,539.12,0.0
52494.0,STARLINK-3857,PAYLOAD,2023-05-24 04:22:41,15.08837567,8.48e-05,53.216,310.3541,91.7274,268.3815,0.00038904,5.909e-05,0.0,0 STARLINK-3857,1 52494U 22049AV  23144.18242679  .00005909  00000-0  38904-3 0  9994,2 52494  53.2160 310.3541 0000848  91.7274 268.3815 15.08837567 58499,6917.888,95.438,540.339,539.166,0.0
52494.0,STARLINK-3857,PAYLOAD,2023-05-24 15:30:23,15.08844301,8.5e-05,53.216,308.2727,84.0761,276.0328,0.00073419,0.00011417,0.0,0 STARLINK-3857,1 52494U 22049AV  23144.64610838  .00011417  00000-0  73419-3 0  9992,2 52494  53.2160 308.2727 0000850  84.0761 276.0328 15.08844301 58400,6917.867,95.437,540.32,539.144,0.0
52494.0,STARLINK-3857,PAYLOAD,2023-05-25 16:56:33,15.08848969,8.59e-05,53.216,303.5149,75.4265,284.6822,0.00049559,7.61e-05,0.0,0 STARLINK-3857,1 52494U 22049AV  23145.70594780  .00007610  00000-0  49559-3 0  9995,2 52494  53.2160 303.5149 0000859  75.4265 284.6822 15.08848969 58721,6917.853,95.437,540.312,539.124,0.0
52494.0,STARLINK-3857,PAYLOAD,2023-05-25 20:07:20,15.08852906,9.38e-05,53.216,302.92,76.2191,283.8906,0.00056426,8.707e-05,0.0,0 STARLINK-3857,1 52494U 22049AV  23145.83842632  .00008707  00000-0  56426-3 0  9990,2 52494  53.2160 302.9200 0000938  76.2191 283.8906 15.08852906 58581,6917.841,95.437,540.355,539.057,0.0
52494.0,STARLINK-3857,PAYLOAD,2023-05-26 10:25:48,15.08848519,0.0001729,53.216,300.2428,96.245,263.8739,0.00031427,4.718e-05,0.0,0 STARLINK-3857,1 52494U 22049AV  23146.43458738  .00004718  00000-0  31427-3 0  9999,2 52494  53.2160 300.2428 0001729  96.2450 263.8739 15.08848519 58838,6917.854,95.437,540.915,538.523,0.0
52494.0,STARLINK-3857,PAYLOAD,2023-05-26 13:36:34,15.08842751,9.67e-05,53.2163,299.649,76.6498,283.4602,0.00016273,2.303e-05,0.0,0 STARLINK-3857,1 52494U 22049AV  23146.56706828  .00002303  00000-0  16273-3 0  9999,2 52494  53.2163 299.6490 0000967  76.6498 283.4602 15.08842751 58691,6917.872,95.437,540.406,539.068,0.0
52494.0,STARLINK-3857,PAYLOAD,2023-05-26 16:47:20,15.08843917,9.4e-05,53.2163,299.0542,76.6154,283.4943,0.00014827,2.073e-05,0.0,0 STARLINK-3857,1 52494U 22049AV  23146.69954792  .00002073  00000-0  14827-3 0  9995,2 52494  53.2163 299.0542 0000940  76.6154 283.4943 15.08843917 58876,6917.868,95.437,540.384,539.083,0.0
52494.0,STARLINK-3857,PAYLOAD,2023-05-27 19:48:54,15.08844903,8.89e-05,53.216,293.9992,100.2195,259.8897,2.3623e-05,8.8e-07,0.0,0 STARLINK-3857,1 52494U 22049AV  23147.82562620  .00000088  00000-0  23623-4 0  9995,2 52494  53.2160 293.9992 0000889 100.2195 259.8897 15.08844903 59047,6917.865,95.437,540.345,539.115,0.0
52494.0,STARLINK-3857,PAYLOAD,2023-05-28 02:10:26,15.08844658,8.66e-05,53.216,292.8098,95.4671,264.642,6.0427e-05,6.74e-06,0.0,0 STARLINK-3857,1 52494U 22049AV  23148.09058595  .00000674  00000-0  60427-4 0  9990,2 52494  53.2160 292.8098 0000866  95.4671 264.6420 15.08844658 58920,6917.866,95.437,540.33,539.132,0.0
52494.0,STARLINK-3857,PAYLOAD,2023-05-28 10:07:22,15.08838888,8.96e-05,53.2158,291.3234,90.2271,269.8824,7.5e-05,9.06e-06,0.0,0 STARLINK-3857,1 52494U 22049AV  23148.42178956  .00000906  00000-0  75000-4 0  9992,2 52494  53.2158 291.3234 0000896  90.2271 269.8824 15.08838888 59132,6917.884,95.438,540.369,539.129,0.0
52494.0,STARLINK-3857,PAYLOAD,2023-05-28 16:28:54,15.08848316,8.88e-05,53.2158,290.1336,87.6879,272.4215,0.0001934,2.792e-05,0.0,0 STARLINK-3857,1 52494U 22049AV  23148.68674448  .00002792  00000-0  19340-3 0  9996,2 52494  53.2158 290.1336 0000888  87.6879 272.4215 15.08848316 59172,6917.855,95.437,540.334,539.106,0.0
52494.0,STARLINK-3857,PAYLOAD,2023-05-29 02:01:13,15.08841869,9.33e-05,53.2149,288.3514,88.6935,271.4164,9.1657e-05,1.171e-05,0.0,0 STARLINK-3857,1 52494U 22049AV  23149.08418728  .00001171  00000-0  91657-4 0  9990,2 52494  53.2149 288.3514 0000933  88.6935 271.4164 15.08841869 59239,6917.875,95.437,540.385,539.094,0.0
52494.0,STARLINK-3857,PAYLOAD,2023-05-29 14:44:19,15.08816855,0.0001015,53.2162,285.9721,87.7654,272.3454,0.00040102,6.096e-05,0.0,0 STARLINK-3857,1 52494U 22049AV  23149.61411614  .00006096  00000-0  40102-3 0  9995,2 52494  53.2162 285.9721 0001015  87.7654 272.3454 15.08816855 59157,6917.951,95.439,540.518,539.114,0.0
52494.0,STARLINK-3857,PAYLOAD,2023-05-29 16:19:42,15.08845379,8.29e-05,53.2161,285.6746,89.8183,270.2904,2.3421e-05,8.5e-07,0.0,0 STARLINK-3857,1 52494U 22049AV  23149.68034732  .00000085  00000-0  23421-4 0  9992,2 52494  53.2161 285.6746 0000829  89.8183 270.2904 15.08845379 59163,6917.864,95.437,540.302,539.155,0.0
52494.0,STARLINK-3857,PAYLOAD,2023-05-30 08:13:34,15.08833144,9.67e-05,53.2166,282.701,93.3059,266.8043,-1.3046e-06,-3.08e-06,0.0,0 STARLINK-3857,1 52494U 22049AV  23150.34275566 -.00000308  00000-0 -13046-5 0  9992,2 52494  53.2166 282.7010 0000967  93.3059 266.8043 15.08833144 59426,6917.901,95.438,540.435,539.097,0.0
52494.0,STARLINK-3857,PAYLOAD,2023-05-30 11:24:20,15.08834784,9.41e-05,53.2165,282.106,89.7094,270.4006,1.5706e-05,-3.8e-07,0.0,0 STARLINK-3857,1 52494U 22049AV  23150.47523450 -.00000038  00000-0  15706-4 0  9997,2 52494  53.2165 282.1060 0000941  89.7094 270.4006 15.08834784 59289,6917.896,95.438,540.412,539.11,0.0
52494.0,STARLINK-3857,PAYLOAD,2023-05-30 17:45:52,15.08842766,8.89e-05,53.2164,280.9165,87.6736,272.4358,4.8938e-05,4.91e-06,0.0,0 STARLINK-3857,1 52494U 22049AV  23150.74018864  .00000491  00000-0  48938-4 0  9990,2 52494  53.2164 280.9165 0000889  87.6736 272.4358 15.08842766 59484,6917.872,95.437,540.352,539.122,0.0
52494.0,STARLINK-3857,PAYLOAD,2023-05-31 01:42:48,15.08825882,9.09e-05,53.2165,279.4299,95.1726,264.937,0.00018084,2.59e-05,0.0,0 STARLINK-3857,1 52494U 22049AV  23151.07139752  .00002590  00000-0  18084-3 0  9997,2 52494  53.2165 279.4299 0000909  95.1726 264.9370 15.08825882 59538,6917.924,95.438,540.417,539.16,0.0
52494.0,STARLINK-3857,PAYLOAD,2023-05-31 14:25:53,15.08839719,8.88e-05,53.2165,277.0501,91.4253,268.684,6.42e-05,7.34e-06,0.0,0 STARLINK-3857,1 52494U 22049AV  23151.60131173  .00000734  00000-0  64200-4 0  9995,2 52494  53.2165 277.0501 0000888  91.4253 268.6840 15.08839719 59456,6917.881,95.438,540.361,539.132,0.0
52494.0,STARLINK-3857,PAYLOAD,2023-05-31 17:36:39,15.08846125,8.74e-05,53.2164,276.4554,88.3458,271.7635,0.00011536,1.549e-05,0.0,0 STARLINK-3857,1 52494U 22049AV  23151.73378665  .00001549  00000-0  11536-3 0  9996,2 52494  53.2164 276.4554 0000874  88.3458 271.7635 15.08846125 59639,6917.862,95.437,540.331,539.122,0.0
52494.0,STARLINK-3857,PAYLOAD,2023-06-01 07:55:07,15.08837262,0.0001053,53.2173,273.7793,81.0407,279.0705,0.00013061,1.791e-05,0.0,0 STARLINK-3857,1 52494U 22049AV  23152.32995320  .00001791  00000-0  13061-3 0  9999,2 52494  53.2173 273.7793 0001053  81.0407 279.0705 15.08837262 59561,6917.889,95.438,540.482,539.025,0.0
52494.0,STARLINK-3857,PAYLOAD,2023-06-02 12:32:04,15.08834181,0.0001158,53.2172,268.428,79.3563,280.7559,1.6921e-05,-1.9e-07,0.0,0 STARLINK-3857,1 52494U 22049AV  23153.52227886 -.00000019  00000-0  16921-4 0  9999,2 52494  53.2172 268.4280 0001158  79.3563 280.7559 15.08834181 59902,6917.898,95.438,540.564,538.962,0.0
52494.0,STARLINK-3857,PAYLOAD,2023-06-02 14:07:27,15.08837758,0.0001089,53.2173,268.1306,109.3318,250.7792,-3.5675e-05,-8.55e-06,0.0,0 STARLINK-3857,1 52494U 22049AV  23153.58851718 -.00000855  00000-0 -35675-4 0  9998,2 52494  53.2173 268.1306 0001089 109.3318 250.7792 15.08837758 59756,6917.887,95.438,540.506,538.999,0.0
52494.0,STARLINK-3857,PAYLOAD,2023-06-02 17:18:13,15.08841389,0.0001043,53.2167,267.5335,101.0007,259.1102,1.1061e-05,-1.12e-06,0.0,0 STARLINK-3857,1 52494U 22049AV  23153.72099290 -.00000112  00000-0  11061-4 0  9991,2 52494  53.2167 267.5335 0001043 101.0007 259.1102 15.08841389 59931,6917.876,95.437,540.463,539.02,0.0
52494.0,STARLINK-3857,PAYLOAD,2023-06-03 10:47:29,15.08791835,9.22e-05,53.2163,264.2626,123.1592,236.9488,0.00067293,0.00010424,0.0,0 STARLINK-3857,1 52494U 22049AV  23154.44964908  .00010424  00000-0  67293-3 0  9991,2 52494  53.2163 264.2626 0000922 123.1592 236.9488 15.08791835 60047,6918.028,95.441,540.53,539.255,0.0
52494.0,STARLINK-3857,PAYLOAD,2023-06-03 12:22:51,15.0882371,9.52e-05,53.2161,263.9647,109.7318,250.3777,0.00023069,3.384e-05,0.0,0 STARLINK-3857,1 52494U 22049AV  23154.51587940  .00003384  00000-0  23069-3 0  9996,2 52494  53.2161 263.9647 0000952 109.7318 250.3777 15.08823710 59893,6917.93,95.439,540.454,539.137,0.0
